ORBCOMM FM20 [+]        
1 25416U 98046D   24085.15781113  .00003094  00000+0  11250-2 0  9997
2 25416  44.9930 144.0928 0001978 246.1996 113.8644 14.35014609339756
ORBCOMM FM16 [-]        
1 25417U 98046E   24085.21648446  .00004773  00000+0  16773-2 0  9996
2 25417  44.9929 139.9207 0005235 220.8509 139.1946 14.35923236339871
ORBCOMM FM15 [-]        
1 25418U 98046F   24085.51231593  .00004926  00000+0  17384-2 0  9990
2 25418  44.9960 142.4753 0004884 224.5148 135.5307 14.35664523339873
ORBCOMM FM14 [-]        
1 25419U 98046G   24085.19975264  .00004640  00000+0  16357-2 0  9997
2 25419  44.9948 143.1261 0003529 222.4321 166.4738 14.35810069339843
ORBCOMM FM13 [+]        
1 25420U 98046H   24084.86933382  .00007638  00000+0  26959-2 0  9996
2 25420  44.9965 149.3056 0005416 202.3810 157.6802 14.35143588338636
ORBCOMM FM21 [-]        
1 25475U 98053A   24085.44485606  .00004010  00000+0  14411-2 0  9991
2 25475  45.0066 230.8468 0001577 180.9009 179.1835 14.35097671333066
ORBCOMM FM22 [-]        
1 25476U 98053B   24085.50836573  .00006096  00000+0  21431-2 0  9998
2 25476  45.0062 228.0138 0002915 156.2083 203.8900 14.35585957333091
ORBCOMM FM23 [-]        
1 25477U 98053C   24085.40470295  .00004194  00000+0  15039-2 0  9997
2 25477  45.0068 233.4766 0002219 160.1769 199.9165 14.35130544333183
