<?xml version="1.0" encoding="UTF-8"?>
<ndm xmlns:xsi="http://www.w3.org/2001/XMLSchema-instance" xsi:noNamespaceSchemaLocation="https://sanaregistry.org/r/ndmxml_unqualified/ndmxml-2.0.0-master-2.0.xsd">
<omm id="CCSDS_OMM_VERS" version="2.0">
<header><CREATION_DATE/><ORIGINATOR/></header><body><segment><metadata><OBJECT_NAME>ORBCOMM FM20 [+]</OBJECT_NAME><OBJECT_ID>1998-046D</OBJECT_ID><CENTER_NAME>EARTH</CENTER_NAME><REF_FRAME>TEME</REF_FRAME><TIME_SYSTEM>UTC</TIME_SYSTEM><MEAN_ELEMENT_THEORY>SGP4</MEAN_ELEMENT_THEORY></metadata><data><meanElements><EPOCH>2024-03-25T03:47:14.881632</EPOCH><MEAN_MOTION>14.35014609</MEAN_MOTION><ECCENTRICITY>.0001978</ECCENTRICITY><INCLINATION>44.9930</INCLINATION><RA_OF_ASC_NODE>144.0928</RA_OF_ASC_NODE><ARG_OF_PERICENTER>246.1996</ARG_OF_PERICENTER><MEAN_ANOMALY>113.8644</MEAN_ANOMALY></meanElements><tleParameters><EPHEMERIS_TYPE>0</EPHEMERIS_TYPE><CLASSIFICATION_TYPE>U</CLASSIFICATION_TYPE><NORAD_CAT_ID>25416</NORAD_CAT_ID><ELEMENT_SET_NO>999</ELEMENT_SET_NO><REV_AT_EPOCH>33975</REV_AT_EPOCH><BSTAR>.1125E-2</BSTAR><MEAN_MOTION_DOT>.3094E-4</MEAN_MOTION_DOT><MEAN_MOTION_DDOT>0</MEAN_MOTION_DDOT></tleParameters></data></segment></body></omm>
<omm id="CCSDS_OMM_VERS" version="2.0">
<header><CREATION_DATE/><ORIGINATOR/></header><body><segment><metadata><OBJECT_NAME>ORBCOMM FM16 [-]</OBJECT_NAME><OBJECT_ID>1998-046E</OBJECT_ID><CENTER_NAME>EARTH</CENTER_NAME><REF_FRAME>TEME</REF_FRAME><TIME_SYSTEM>UTC</TIME_SYSTEM><MEAN_ELEMENT_THEORY>SGP4</MEAN_ELEMENT_THEORY></metadata><data><meanElements><EPOCH>2024-03-25T05:11:44.257344</EPOCH><MEAN_MOTION>14.35923236</MEAN_MOTION><ECCENTRICITY>.0005235</ECCENTRICITY><INCLINATION>44.9929</INCLINATION><RA_OF_ASC_NODE>139.9207</RA_OF_ASC_NODE><ARG_OF_PERICENTER>220.8509</ARG_OF_PERICENTER><MEAN_ANOMALY>139.1946</MEAN_ANOMALY></meanElements><tleParameters><EPHEMERIS_TYPE>0</EPHEMERIS_TYPE><CLASSIFICATION_TYPE>U</CLASSIFICATION_TYPE><NORAD_CAT_ID>25417</NORAD_CAT_ID><ELEMENT_SET_NO>999</ELEMENT_SET_NO><REV_AT_EPOCH>33987</REV_AT_EPOCH><BSTAR>.16773E-2</BSTAR><MEAN_MOTION_DOT>.4773E-4</MEAN_MOTION_DOT><MEAN_MOTION_DDOT>0</MEAN_MOTION_DDOT></tleParameters></data></segment></body></omm>
<omm id="CCSDS_OMM_VERS" version="2.0">
<header><CREATION_DATE/><ORIGINATOR/></header><body><segment><metadata><OBJECT_NAME>ORBCOMM FM15 [-]</OBJECT_NAME><OBJECT_ID>1998-046F</OBJECT_ID><CENTER_NAME>EARTH</CENTER_NAME><REF_FRAME>TEME</REF_FRAME><TIME_SYSTEM>UTC</TIME_SYSTEM><MEAN_ELEMENT_THEORY>SGP4</MEAN_ELEMENT_THEORY></metadata><data><meanElements><EPOCH>2024-03-25T12:17:44.096352</EPOCH><MEAN_MOTION>14.35664523</MEAN_MOTION><ECCENTRICITY>.0004884</ECCENTRICITY><INCLINATION>44.9960</INCLINATION><RA_OF_ASC_NODE>142.4753</RA_OF_ASC_NODE><ARG_OF_PERICENTER>224.5148</ARG_OF_PERICENTER><MEAN_ANOMALY>135.5307</MEAN_ANOMALY></meanElements><tleParameters><EPHEMERIS_TYPE>0</EPHEMERIS_TYPE><CLASSIFICATION_TYPE>U</CLASSIFICATION_TYPE><NORAD_CAT_ID>25418</NORAD_CAT_ID><ELEMENT_SET_NO>999</ELEMENT_SET_NO><REV_AT_EPOCH>33987</REV_AT_EPOCH><BSTAR>.17384E-2</BSTAR><MEAN_MOTION_DOT>.4926E-4</MEAN_MOTION_DOT><MEAN_MOTION_DDOT>0</MEAN_MOTION_DDOT></tleParameters></data></segment></body></omm>
<omm id="CCSDS_OMM_VERS" version="2.0">
<header><CREATION_DATE/><ORIGINATOR/></header><body><segment><metadata><OBJECT_NAME>ORBCOMM FM14 [-]</OBJECT_NAME><OBJECT_ID>1998-046G</OBJECT_ID><CENTER_NAME>EARTH</CENTER_NAME><REF_FRAME>TEME</REF_FRAME><TIME_SYSTEM>UTC</TIME_SYSTEM><MEAN_ELEMENT_THEORY>SGP4</MEAN_ELEMENT_THEORY></metadata><data><meanElements><EPOCH>2024-03-25T04:47:38.628096</EPOCH><MEAN_MOTION>14.35810069</MEAN_MOTION><ECCENTRICITY>.0003529</ECCENTRICITY><INCLINATION>44.9948</INCLINATION><RA_OF_ASC_NODE>143.1261</RA_OF_ASC_NODE><ARG_OF_PERICENTER>222.4321</ARG_OF_PERICENTER><MEAN_ANOMALY>166.4738</MEAN_ANOMALY></meanElements><tleParameters><EPHEMERIS_TYPE>0</EPHEMERIS_TYPE><CLASSIFICATION_TYPE>U</CLASSIFICATION_TYPE><NORAD_CAT_ID>25419</NORAD_CAT_ID><ELEMENT_SET_NO>999</ELEMENT_SET_NO><REV_AT_EPOCH>33984</REV_AT_EPOCH><BSTAR>.16357E-2</BSTAR><MEAN_MOTION_DOT>.464E-4</MEAN_MOTION_DOT><MEAN_MOTION_DDOT>0</MEAN_MOTION_DDOT></tleParameters></data></segment></body></omm>
<omm id="CCSDS_OMM_VERS" version="2.0">
<header><CREATION_DATE/><ORIGINATOR/></header><body><segment><metadata><OBJECT_NAME>ORBCOMM FM13 [+]</OBJECT_NAME><OBJECT_ID>1998-046H</OBJECT_ID><CENTER_NAME>EARTH</CENTER_NAME><REF_FRAME>TEME</REF_FRAME><TIME_SYSTEM>UTC</TIME_SYSTEM><MEAN_ELEMENT_THEORY>SGP4</MEAN_ELEMENT_THEORY></metadata><data><meanElements><EPOCH>2024-03-24T20:51:50.442048</EPOCH><MEAN_MOTION>14.35143588</MEAN_MOTION><ECCENTRICITY>.0005416</ECCENTRICITY><INCLINATION>44.9965</INCLINATION><RA_OF_ASC_NODE>149.3056</RA_OF_ASC_NODE><ARG_OF_PERICENTER>202.3810</ARG_OF_PERICENTER><MEAN_ANOMALY>157.6802</MEAN_ANOMALY></meanElements><tleParameters><EPHEMERIS_TYPE>0</EPHEMERIS_TYPE><CLASSIFICATION_TYPE>U</CLASSIFICATION_TYPE><NORAD_CAT_ID>25420</NORAD_CAT_ID><ELEMENT_SET_NO>999</ELEMENT_SET_NO><REV_AT_EPOCH>33863</REV_AT_EPOCH><BSTAR>.26959E-2</BSTAR><MEAN_MOTION_DOT>.7638E-4</MEAN_MOTION_DOT><MEAN_MOTION_DDOT>0</MEAN_MOTION_DDOT></tleParameters></data></segment></body></omm>
<omm id="CCSDS_OMM_VERS" version="2.0">
<header><CREATION_DATE/><ORIGINATOR/></header><body><segment><metadata><OBJECT_NAME>ORBCOMM FM21 [-]</OBJECT_NAME><OBJECT_ID>1998-053A</OBJECT_ID><CENTER_NAME>EARTH</CENTER_NAME><REF_FRAME>TEME</REF_FRAME><TIME_SYSTEM>UTC</TIME_SYSTEM><MEAN_ELEMENT_THEORY>SGP4</MEAN_ELEMENT_THEORY></metadata><data><meanElements><EPOCH>2024-03-25T10:40:35.563584</EPOCH><MEAN_MOTION>14.35097671</MEAN_MOTION><ECCENTRICITY>.0001577</ECCENTRICITY><INCLINATION>45.0066</INCLINATION><RA_OF_ASC_NODE>230.8468</RA_OF_ASC_NODE><ARG_OF_PERICENTER>180.9009</ARG_OF_PERICENTER><MEAN_ANOMALY>179.1835</MEAN_ANOMALY></meanElements><tleParameters><EPHEMERIS_TYPE>0</EPHEMERIS_TYPE><CLASSIFICATION_TYPE>U</CLASSIFICATION_TYPE><NORAD_CAT_ID>25475</NORAD_CAT_ID><ELEMENT_SET_NO>999</ELEMENT_SET_NO><REV_AT_EPOCH>33306</REV_AT_EPOCH><BSTAR>.14411E-2</BSTAR><MEAN_MOTION_DOT>.401E-4</MEAN_MOTION_DOT><MEAN_MOTION_DDOT>0</MEAN_MOTION_DDOT></tleParameters></data></segment></body></omm>
<omm id="CCSDS_OMM_VERS" version="2.0">
<header><CREATION_DATE/><ORIGINATOR/></header><body><segment><metadata><OBJECT_NAME>ORBCOMM FM22 [-]</OBJECT_NAME><OBJECT_ID>1998-053B</OBJECT_ID><CENTER_NAME>EARTH</CENTER_NAME><REF_FRAME>TEME</REF_FRAME><TIME_SYSTEM>UTC</TIME_SYSTEM><MEAN_ELEMENT_THEORY>SGP4</MEAN_ELEMENT_THEORY></metadata><data><meanElements><EPOCH>2024-03-25T12:12:02.799072</EPOCH><MEAN_MOTION>14.35585957</MEAN_MOTION><ECCENTRICITY>.0002915</ECCENTRICITY><INCLINATION>45.0062</INCLINATION><RA_OF_ASC_NODE>228.0138</RA_OF_ASC_NODE><ARG_OF_PERICENTER>156.2083</ARG_OF_PERICENTER><MEAN_ANOMALY>203.8900</MEAN_ANOMALY></meanElements><tleParameters><EPHEMERIS_TYPE>0</EPHEMERIS_TYPE><CLASSIFICATION_TYPE>U</CLASSIFICATION_TYPE><NORAD_CAT_ID>25476</NORAD_CAT_ID><ELEMENT_SET_NO>999</ELEMENT_SET_NO><REV_AT_EPOCH>33309</REV_AT_EPOCH><BSTAR>.21431E-2</BSTAR><MEAN_MOTION_DOT>.6096E-4</MEAN_MOTION_DOT><MEAN_MOTION_DDOT>0</MEAN_MOTION_DDOT></tleParameters></data></segment></body></omm>
<omm id="CCSDS_OMM_VERS" version="2.0">
<header><CREATION_DATE/><ORIGINATOR/></header><body><segment><metadata><OBJECT_NAME>ORBCOMM FM23 [-]</OBJECT_NAME><OBJECT_ID>1998-053C</OBJECT_ID><CENTER_NAME>EARTH</CENTER_NAME><REF_FRAME>TEME</REF_FRAME><TIME_SYSTEM>UTC</TIME_SYSTEM><MEAN_ELEMENT_THEORY>SGP4</MEAN_ELEMENT_THEORY></metadata><data><meanElements><EPOCH>2024-03-25T09:42:46.334880</EPOCH><MEAN_MOTION>14.35130544</MEAN_MOTION><ECCENTRICITY>.0002219</ECCENTRICITY><INCLINATION>45.0068</INCLINATION><RA_OF_ASC_NODE>233.4766</RA_OF_ASC_NODE><ARG_OF_PERICENTER>160.1769</ARG_OF_PERICENTER><MEAN_ANOMALY>199.9165</MEAN_ANOMALY></meanElements><tleParameters><EPHEMERIS_TYPE>0</EPHEMERIS_TYPE><CLASSIFICATION_TYPE>U</CLASSIFICATION_TYPE><NORAD_CAT_ID>25477</NORAD_CAT_ID><ELEMENT_SET_NO>999</ELEMENT_SET_NO><REV_AT_EPOCH>33318</REV_AT_EPOCH><BSTAR>.15039E-2</BSTAR><MEAN_MOTION_DOT>.4194E-4</MEAN_MOTION_DOT><MEAN_MOTION_DDOT>0</MEAN_MOTION_DDOT></tleParameters></data></segment></body></omm>

</ndm>
